GLOBALSTAR M023         
1 25621U 99004A   24284.83073377 -.00000014  00000+0  50089-3 0  9996
2 25621  52.0098  92.7259 0009207 298.2688 201.4856 12.62478521184239
GLOBALSTAR M040         
1 25622U 99004B   24284.78009196 -.00000033  00000+0  39453-3 0  9992
2 25622  51.9898  96.6618 0000933 140.4924 324.6573 12.61986361183762
GLOBALSTAR M036         
1 25623U 99004C   24285.14547240 -.00000100  00000+0 -24895-3 0  9991
2 25623  51.9958 176.7313 0010201 298.5892 229.3375 11.86578235149395
GLOBALSTAR M038         
1 25624U 99004D   24284.73429899 -.00000053  00000+0  34783-3 0  9998
2 25624  51.9973  69.9554 0001126 234.0918 230.8054 12.32510125171610
GLOBALSTAR M022         
1 25649U 99012A   24284.86788740 -.00000024  00000+0  74927-3 0  9993
2 25649  52.0030 248.6607 0002865  38.3930   1.0939 12.02489231146384
GLOBALSTAR M041         
1 25650U 99012B   24285.55691147 -.00000058  00000+0  35045-3 0  9991
2 25650  51.9996 120.6572 0002346 173.0663 187.0206 11.96658941148763
GLOBALSTAR M046         
1 25651U 99012C   24285.18271623 -.00000011  00000+0  85191-3 0  9990
2 25651  52.0046 207.0277 0002659 101.4184  46.6758 12.09398224153885
GLOBALSTAR M037         
1 25652U 99012D   24284.85712903 -.00000011  00000+0  51746-3 0  9994
2 25652  51.9996 223.3553 0002303   8.9898  40.5114 12.62421066179837
